146P/Shoemaker-LINEAR,e,23.1171,53.4199,317.0242,4.026175,0.1220015,0.64742733,344.4463,03/31.0/2024,2000,g 15.0,4.0
# From MPC 75720
147P/Kushida-Muramatsu,e,2.2913,92.1161,348.1044,4.010735,0.1227066,0.21246345,14.1033,03/31.0/2024,2000,g 14.0,4.0
# From MPEC 2023-HD1
148P/Anderson-LINEAR,e,3.6586,89.1969,8.0535,3.619748,0.1431154,0.55022608,93.9035,03/31.0/2024,2000,g 16.2,4.0
# From MPEC 2023-J29
149P/Mueller,e,34.2387,143.8422,30.3958,4.124614,0.1176601,0.32432389,243.3240,03/31.0/2024,2000,g  8.0,8.0
# From MPEC 2024-F34
150P/LONEOS,e,18.5474,272.0590,246.1129,3.869971,0.1294620,0.54894092,2.4000,03/31.0/2024,2000,g 13.5,4.0
# From MPEC 2022-K19
151P/Helin,e,4.7277,143.1642,216.1326,5.764088,0.0712210,0.57330057,220.0949,03/31.0/2024,2000,g 10.0,6.0
# From MPEC 2024-F91
152P/Helin-Lawrence,e,9.8780,91.7982,164.3536,4.483085,0.1038338,0.30809902,83.7153,03/31.0/2024,2000,g 11.5,4.0
# From MPC 46101
153P/Ikeya-Zhang,e,28.3872,93.6958,34.3862,50.35213,0.0027585,0.98997378,0.0000,03/05.8067/2002,2000,g  9.0,4.0
# From MPEC 2022-K19
154P/Brewington,e,17.6341,343.0164,47.9613,4.795190,0.0938632,0.67614738,353.1993,03/31.0/2024,2000,g  2.5,12.0
# From MPEC 2022-YN2
155P/Shoemaker,e,6.4075,97.1593,14.5204,6.571059,0.0585128,0.72727043,93.4420,03/31.0/2024,2000,g 10.0,4.8
# From MPEC 2023-J29
156P/Russell-LINEAR,e,17.2695,35.3420,0.5041,3.462491,0.1529752,0.61514192,187.9097,03/31.0/2024,2000,g 15.5,2.0
# From MPEC 2024-D33
157P/Tritton,e,12.4207,287.5195,155.1202,3.546893,0.1475476,0.55681952,83.8170,03/31.0/2024,2000,g 10.0,4.0
# From MPEC 2022-VC5
157P-B/Tritton,e,12.4250,153.9168,287.1418,3.102283,0.1803774,0.49988837,102.7915,03/31.0/2024,2000,g 15.7,4.0
# From MPEC 2024-D33
158P/Kowal-LINEAR,e,7.2944,127.1113,214.5688,5.549296,0.0753958,0.11588100,52.3898,03/31.0/2024,2000,g  9.0,4.0
# From MPEC 2024-DC6
159P/LONEOS,e,23.4895,54.9389,4.6487,5.853383,0.0695975,0.38280165,148.7254,03/31.0/2024,2000,g 10.0,4.0
# From MPEC 2022-K19
160P/LINEAR,e,15.6040,333.3733,12.7874,3.778174,0.1342089,0.52553564,212.1338,03/31.0/2024,2000,g 15.5,2.0
# From MPC 75721
161P/Hartley-IRAS,e,95.8225,1.5628,47.0613,7.713148,0.0460105,0.83562713,315.2693,03/31.0/2024,2000,g  8.5,6.0
# From MPEC 2024-F34
162P/SidingSpring,e,27.5632,30.8874,357.2154,3.092169,0.1812631,0.58312372,219.0493,03/31.0/2024,2000,g 12.0,4.0
# From MPEC 2021-S45
163P/NEAT,e,12.7191,102.0693,349.5753,3.763018,0.1350205,0.45320064,229.3083,03/31.0/2024,2000,g 14.5,4.0
# From MPEC 2021-F20
164P/Christensen,e,16.2725,88.3044,325.8866,3.652503,0.1411946,0.54123867,300.3644,03/31.0/2024,2000,g 11.0,4.0
# From MPC 75721
165P/LINEAR,e,15.8995,0.7924,125.7707,17.81982,0.0131023,0.61808158,114.0613,03/31.0/2024,2000,g 11.5,2.0
# From MPC 75722
166P/NEAT,e,15.3796,64.4313,321.7283,13.82528,0.0191731,0.38422645,152.7078,03/31.0/2024,2000,g  5.5,4.0
# From MPEC 2023-J29
167P/CINEOS,e,19.0872,295.7965,344.7107,16.25840,0.0150344,0.26839646,126.0597,03/31.0/2024,2000,g  9.5,2.0
# From MPEC 2023-J29
168P/Hergenrother,e,21.6042,355.4177,15.0767,3.586886,0.1450867,0.62153880,245.9591,03/31.0/2024,2000,g 15.5,4.0
# From MPEC 2023-J95
169P/NEAT,e,11.2941,176.0919,218.0817,2.603328,0.2346447,0.76828855,147.8838,03/31.0/2024,2000,g 16.0,2.0
# From MPEC 2024-F34
170P/Christensen,e,10.1133,142.7162,225.1473,4.206442,0.1142436,0.30564644,39.7890,03/31.0/2024,2000,g 12.0,4.0
# From MPC102102
171P/Spahr,e,21.9496,101.6985,347.0619,3.552649,0.1471891,0.50257596,280.0658,03/31.0/2024,2000,g 13.5,4.0
# From MPEC 2024-F34
172P/Yeung,e,11.2251,30.8773,209.0463,4.220275,0.1136823,0.20450784,293.7930,03/31.0/2024,2000,g 13.0,4.0
# From MPEC 2023-N01
173P/Mueller,e,16.4905,100.3577,29.1868,5.712440,0.0721891,0.26199400,60.2964,03/31.0/2024,2000,g  7.5,4.0
# From MPC 92985
174P/Echeclus,e,4.3430,173.2985,163.4330,10.75504,0.0279438,0.45597526,91.1885,03/31.0/2024,2000,g  9.4,2.0
# From MPC114608
175P/Hergenrother,e,4.9118,110.1405,75.1463,3.671861,0.1400796,0.38018705,236.0051,03/31.0/2024,2000,g 14.0,4.0
# From MPC 89015
176P/LINEAR,e,0.2314,345.6251,34.4513,3.194439,0.1726283,0.19224930,85.7708,03/31.0/2024,2000,g 15.1,2.0
# From MPEC 2020-L06
177P/Barnard,e,31.0546,271.9645,60.6059,24.51530,0.0081199,0.95472774,52.1098,03/31.0/2024,2000,g 15.0,4.0
# From MPEC 2021-F20
178P/Hug-Bell,e,11.0899,102.7994,297.9215,3.632802,0.1423447,0.48252846,192.4872,03/31.0/2024,2000,g 14.6,4.0
# From MPEC 2024-EF7
179P/Jedicke,e,19.8939,115.5148,297.0992,5.934755,0.0681710,0.30579525,45.6381,03/31.0/2024,2000,g  2.5,8.0
# From MPEC 2024-F34
180P/NEAT,e,16.8611,84.5600,94.6491,3.868430,0.1295394,0.35357293,34.0531,03/31.0/2024,2000,g 11.0,4.0
# From MPC 89012
181P/Shoemaker-Levy,e,17.4828,35.4211,336.2878,3.877597,0.1290803,0.70033210,104.8519,03/31.0/2024,2000,g 11.5,4.0
# From MPEC 2014-J10
182P/LONEOS,e,16.2317,72.4495,54.2068,2.949473,0.1945752,0.66355049,133.9886,03/31.0/2024,2000,g 18.0,4.0
# From MPEC 2023-A50
183P/Korlevic-Juric,e,18.8138,3.8620,164.7972,4.688060,0.0970989,0.10344602,235.3658,03/31.0/2024,2000,g 12.5,2.0
# From MPEC 2020-W26
184P/Lovas,e,4.5729,173.2756,186.5571,3.799134,0.1330997,0.55046239,166.6168,03/31.0/2024,2000,g 13.5,4.0
# From MPEC 2024-F91
185P/Petriew,e,14.0145,214.1150,181.8958,3.098495,0.1807082,0.69969695,47.3649,03/31.0/2024,2000,g 15.0,4.0
# From MPEC 2022-X67
186P/Garradd,e,28.6267,326.1255,269.0538,4.851724,0.0922274,0.12426745,177.2739,03/31.0/2024,2000,g  7.5,4.0
# From MPEC 2020-SI8
187P/LINEAR,e,13.6493,109.8505,131.1749,4.559899,0.1012211,0.15390135,217.7554,03/31.0/2024,2000,g  9.0,4.0
# From MPEC 2023-J29
188P/LINEAR-Mueller,e,10.5239,358.9399,26.7422,4.368054,0.1079623,0.41693091,279.7858,03/31.0/2024,2000,g 11.5,4.0
# From MPEC 2022-QD9
189P/NEAT,e,20.0915,281.6733,16.2653,2.943204,0.1951972,0.58919164,113.2437,03/31.0/2024,2000,g 19.0,4.0
# From MPEC 2020-K19
190P/Mueller,e,2.1746,335.5611,50.4453,4.227366,0.1133964,0.52222869,329.5985,03/31.0/2024,2000,g 13.0,4.0
# From MPEC 2022-X67
191P/McNaught,e,8.8389,98.1934,284.2314,3.639402,0.1419577,0.38569725,157.0692,03/31.0/2024,2000,g 13.0,4.0
# From MPC 75724
192P/Shoemaker-Levy,e,24.5849,51.6550,313.0452,6.460060,0.0600274,0.77330255,356.7363,03/31.0/2024,2000,g 15.0,4.0
# From MPEC 2024-EF7
193P/LINEAR-NEAT,e,10.6843,335.1871,8.1344,3.578110,0.1456208,0.39316551,138.2168,03/31.0/2024,2000,g 14.0,4.0
# From MPEC 2024-F91
194P/LINEAR,e,11.8061,349.5245,128.5652,4.119706,0.1178704,0.56318009,6.5740,03/31.0/2024,2000,g 16.0,4.0
# From MPEC 2024-EF7
195P/Hill,e,36.4193,243.1104,250.0057,6.482792,0.0597119,0.31420414,330.8884,03/31.0/2024,2000,g  8.5,4.0
# From MPEC 2022-YN2
196P/Tichy,e,19.3012,24.1148,12.0824,3.804322,0.1328276,0.42794109,68.8904,03/31.0/2024,2000,g 13.5,4.0
# From MPEC 2023-UR6
197P/LINEAR,e,25.6021,66.2639,189.0734,2.877047,0.2019685,0.62936362,96.7145,03/31.0/2024,2000,g 16.5,2.0
# From NK 1596
198P/ODAS,e,1.3387,358.2088,69.2774,3.594500,0.1446260,0.44474367,279.3465,03/31.0/2024,2000,g  9.0,4.0
# From MPEC 2023-W26
199P/Shoemaker,e,24.9387,92.3486,191.7724,5.878169,0.0691578,0.50487527,16.3512,03/31.0/2024,2000,g 10.0,4.0
# From MPEC 2022-C56
200P/Larsen,e,12.0963,234.8052,134.3586,4.949865,0.0894981,0.33204376,152.6712,03/31.0/2024,2000,g  9.0,4.0
# From MPC 93588
201P/LONEOS,e,5.7399,41.5398,19.7645,3.354779,0.1604014,0.63757414,166.6122,03/31.0/2024,2000,g 14.0,4.0
# From MPEC 2023-XP6
202P/Scotti,e,2.1415,177.3192,274.4895,4.104907,0.1185084,0.25219344,354.3809,03/31.0/2024,2000,g 13.5,4.0
# From MPEC 2021-S45
203P/Korlevic,e,2.9741,290.2545,154.8335,4.668687,0.0977039,0.31622279,145.1872,03/31.0/2024,2000,g 14.5,2.0
# From MPEC 2023-KD6
204P/LINEAR-NEAT,e,6.5963,108.4846,356.6875,3.583370,0.1453003,0.48811446,72.6551,03/31.0/2024,2000,g 14.0,4.0
# From MPEC 2023_O39
205P/Giacobini,e,15.3047,179.6115,154.1842,3.542534,0.1478199,0.56757888,119.3843,03/31.0/2024,2000,g 13.0,4.0
# From MPC 75725
206P/Barnard-Boattini,e,33.6346,202.3521,189.5507,3.490914,0.1511108,0.55144727,169.5514,03/31.0/2024,2000,g 19.0,4.0
# From MPEC 2024-F34
207P/NEAT,e,10.2013,198.1557,272.9916,3.883528,0.1287848,0.75840301,7.6219,03/31.0/2024,2000,g 16.0,4.0
# From MPEC 2022-K19
208P/McMillan,e,4.4123,36.4011,310.6103,4.038745,0.1214324,0.37388386,342.2824,03/31.0/2024,2000,g 12.5,4.0
# From MPEC 2024-EF7
209P/LINEAR,e,21.2825,62.7698,152.4942,2.958362,0.1936989,0.67400099,339.5651,03/31.0/2024,2000,g 17.0,2.0
# From MPC105242
210P/Christensen,e,10.2790,93.8238,345.8956,3.162173,0.1752773,0.83398704,254.5358,03/31.0/2024,2000,g 13.5,4.0
# From MPEC 2023-KD6
211P/Hill,e,18.9194,117.1129,4.3147,3.548746,0.1474320,0.34421737,80.0927,03/31.0/2024,2000,g 12.5,4.0
# From MPEC 2024-EF7
212P/NEAT,e,22.1485,97.9753,14.0225,3.901449,0.1278984,0.58670606,356.7904,03/31.0/2024,2000,g 17.0,2.0
# From MPEC 2022-GA9
213P/Van Ness,e,10.3810,311.3075,5.7683,3.345415,0.1610753,0.40802976,22.5807,03/31.0/2024,2000,g 10.5,4.0
# From MPC 76570
213P-B/Van Ness,e,10.3803,5.7374,311.3469,3.345702,0.1610546,0.40818029,22.4325,03/31.0/2024,2000,g 17.0,4.0
# From MPC 76570
213P-C/Van Ness,e,10.3778,5.7189,311.3482,3.345053,0.1611015,0.40801671,22.7076,03/31.0/2024,2000,g 17.5,4.0
# From MPC 92986
214P/LINEAR,e,15.1854,348.2221,190.1469,3.617879,0.1432264,0.48589015,79.0427,03/31.0/2024,2000,g 13.0,4.0
# From MPEC 2024-F91
215P/NEAT,e,10.5765,56.6732,262.4069,4.333470,0.1092573,0.16543288,174.2773,03/31.0/2024,2000,g 11.0,4.0
# From MPEC 2024-F34
216P/LINEAR,e,9.0630,359.7987,151.7338,3.858287,0.1300506,0.44869971,10.9403,03/31.0/2024,2000,g 13.0,4.0
# From MPEC 2023-J29
217P/LINEAR,e,12.8634,125.3832,247.0097,3.946598,0.1257100,0.68924543,307.2148,03/31.0/2024,2000,g 12.0,4.0
# From MPEC 2022-K19
218P/LINEAR,e,2.7275,175.7319,59.8467,3.080475,0.1822962,0.62718357,231.6699,03/31.0/2024,2000,g 16.0,4.0
# From MPEC 2024-F91
219P/LINEAR,e,11.5400,230.9531,107.6298,3.645129,0.1416233,0.35397443,6.5377,03/31.0/2024,2000,g 11.0,4.0
# From MPEC 2024-A43
